ISS (ZARYA)             
1 25544U 98067A   26190.12129410  .00005585  00000+0  10961-3 0  9990
2 25544  51.6303 191.5347 0006670 273.7232  86.2993 15.48953098575157
OSCAR 7 (AO-7)          
1 07530U 74089B   26190.32897198 -.00000038  00000+0  49724-4 0  9999
2 07530 101.9902 203.8062 0012663  89.1895 342.2557 12.53698424363293
PHASE 3B (AO-10)        
1 14129U 83058B   26189.24859908  .00000202  00000+0  00000+0 0  9994
2 14129  25.9305 216.0918 6003826 121.4539 310.7883  2.05869766295926
UOSAT 2 (UO-11)         
1 14781U 84021B   26189.90082573  .00000894  00000+0  96386-4 0  9992
2 14781  97.8071 155.2351 0009147 108.6371 251.5841 14.90838473260364
LUSAT (LO-19)           
1 20442U 90005G   26190.01952797  .00000058  00000+0  37537-4 0  9995
2 20442  98.8846 212.4261 0012307 138.2781 221.9344 14.34129510905524
EYESAT A (AO-27)        
1 22825U 93061C   26190.16568541  .00000044  00000+0  33846-4 0  9997
2 22825  98.6870 257.5702 0009081  42.3993 317.7889 14.30948062710148
ITAMSAT (IO-26)         
1 22826U 93061D   26190.13853778  .00000039  00000+0  31711-4 0  9997
2 22826  98.6818 257.4628 0009314  26.5022 333.6635 14.31375523710450
RADIO ROSTO (RS15)      
1 23439U 94085A   26190.19956448 -.00000037  00000+0  15602-3 0  9998
2 23439  64.8162 267.6172 0156696 359.8125   0.2717 11.27583504298380
JAS-2 (FO-29)           
1 24278U 96046B   26190.04746765  .00000001  00000+0  35079-4 0  9993
2 24278  98.5224  35.9232 0350601  39.8653 322.7685 13.53275148476120
TECHSAT 1B (GO-32)      
1 25397U 98043D   26189.90993157  .00000035  00000+0  35510-4 0  9994
2 25397  99.0079 183.2175 0002015 124.8391 235.2977 14.24432499454421
PCSAT (NO-44)           
1 26931U 01043C   26189.46210552  .00000066  00000+0  55648-4 0  9993
2 26931  67.0487 189.2445 0005977 266.0895  93.9524 14.31963214293495
SAUDISAT 1C (SO-50)     
1 27607U 02058C   26190.07047632  .00000528  00000+0  80074-4 0  9991
2 27607  64.5518  61.2774 0074702 258.4036 100.8678 14.83090961267701
CUTE-1 (CO-55)          
1 27844U 03031E   26189.95445865  .00000197  00000+0  10410-3 0  9999
2 27844  98.6739 198.2397 0010684 118.8005 241.4249 14.24348882194778
CUBESAT XI-IV (CO-57)   
1 27848U 03031J   26189.46187375  .00000184  00000+0  99678-4 0  9998
2 27848  98.6772 197.4488 0010258 137.0463 223.1519 14.23632050194408
MOZHAETS 4 (RS22)       
1 27939U 03042A   26190.36073010  .00000207  00000+0  40196-4 0  9999
2 27939  98.3481  15.3468 0010795 192.0332 287.3631 14.73506027218819
CUBESAT XI-V            
1 28895U 05043F   26189.39764200  .00001087  00000+0  17855-3 0  9995
2 28895  98.3007 345.4679 0015004 135.1728 225.0694 14.72690312104879
CUTE-1.7+APD II (CO-65) 
1 32785U 08021C   26190.25575148  .00002969  00000+0  18852-3 0  9993
2 32785  97.8286 172.1377 0007449 323.7200  36.3522 15.09665034988528
SEEDS II (CO-66)        
1 32791U 08021J   26189.93516932  .00012773  00000+0  39659-3 0  9991
2 32791  97.7528 188.8830 0002351 170.9352 189.1933 15.33517693990629
YUBILEINY (RS30)        
1 32953U 08025A   26190.22993096  .00000083  00000+0  52657-3 0  9993
2 32953  82.5059 341.7273 0018528 262.8522  97.0451 12.43180670822438
KKS-1 (KISEKI)          
1 33499U 09002H   26190.25017924  .00000934  00000+0  12122-3 0  9993
2 33499  98.1179 113.0421 0006958 209.8459 150.2358 14.83180307939462
SWISSCUBE               
1 35932U 09051B   26190.19876654  .00000685  00000+0  14470-3 0  9998
2 35932  98.4016  98.4691 0007536 135.2732 224.9078 14.62523766892376
BEESAT-1                
1 35933U 09051C   26189.67208954  .00000597  00000+0  12966-3 0  9992
2 35933  98.3944  97.5236 0005733 147.2714 212.8843 14.61755226892329
ITUPSAT1                
1 35935U 09051E   26189.54478970  .00000560  00000+0  12544-3 0  9999
2 35935  98.4027  96.5634 0007610 162.4704 197.6760 14.60472478891858
XIWANG-1 (HOPE-1)       
1 36122U 09072B   26190.28362450  .00000184  00000+0  59735-3 0  9994
2 36122 100.4034 143.7636 0007371 178.1675 181.9466 13.16441366795912
O/OREOS (USA 219)       
1 37224U 10062C   26190.22848649  .00001439  00000+0  14125-3 0  9990
2 37224  71.9709  30.4075 0013636  16.8017 343.3602 14.93837463119936
JUGNU                   
1 37839U 11058B   26190.03109338  .00000383  00000+0  60431-4 0  9991
2 37839  19.9588 175.7154 0018376 318.1720  84.2013 14.13782334762121
SRMSAT                  
1 37841U 11058D   26190.26776515  .00000357  00000+0  49932-4 0  9990
2 37841  19.9721 285.8249 0011876  86.5913 293.6936 14.11580164760942
STRAND-1                
1 39090U 13009E   26189.91715955  .00000195  00000+0  79795-4 0  9997
2 39090  98.3931   9.6176 0009049 158.4879 201.6690 14.37176360700187
ZACUBE-1 (TSHEPISOSAT)  
1 39417U 13066B   26190.13615696  .00001581  00000+0  12533-3 0  9996
2 39417  97.8016 152.5825 0043657 174.6140 185.5562 15.01311101684029
GOMX-1                  
1 39430U 13066Q   26190.24748924  .00000870  00000+0  13685-3 0  9993
2 39430  97.6478  29.3178 0128819   7.3183 352.9865 14.69532232673150
