OBJECT_NAME,OBJECT_ID,EPOCH,MEAN_MOTION,ECCENTRICITY,INCLINATION,RA_OF_ASC_NODE,ARG_OF_PERICENTER,MEAN_ANOMALY,EPHEMERIS_TYPE,CLASSIFICATION_TYPE,NORAD_CAT_ID,ELEMENT_SET_NO,REV_AT_EPOCH,BSTAR,MEAN_MOTION_DOT,MEAN_MOTION_DDOT
OSCAR 7 (AO-7),1974-089B,2026-07-09T07:53:43.179072,12.53698424,.00126631,101.9902,203.8062,89.1895,342.2557,0,U,7530,999,36329,.49724075E-4,-.38E-6,0
PHASE 3B (AO-10),1983-058B,2026-07-08T05:57:58.960512,2.05869766,.60038265,25.9305,216.0918,121.4539,310.7883,0,U,14129,999,29592,0,.202E-5,0
UOSAT 2 (UO-11),1984-021B,2026-07-08T21:37:11.343072,14.90838473,.00091475,97.8071,155.2351,108.6371,251.5841,0,U,14781,999,26036,.9638644E-4,.894E-5,0
LUSAT (LO-19),1990-005G,2026-07-09T00:28:07.216608,14.34129510,.00123077,98.8846,212.4261,138.2781,221.9344,0,U,20442,999,90552,.37536928E-4,.58E-6,0
EYESAT A (AO-27),1993-061C,2026-07-09T03:58:35.219424,14.30948062,.00090814,98.6870,257.5702,42.3993,317.7889,0,U,22825,999,71014,.33846407E-4,.44E-6,0
ITAMSAT (IO-26),1993-061D,2026-07-09T03:19:29.664192,14.31375523,.00093147,98.6818,257.4628,26.5022,333.6635,0,U,22826,999,71045,.31710822E-4,.39E-6,0
RADIO ROSTO (RS15),1994-085A,2026-07-09T04:47:22.371072,11.27583504,.01566966,64.8162,267.6172,359.8125,0.2717,0,U,23439,999,29838,.15601949E-3,-.37E-6,0
JAS-2 (FO-29),1996-046B,2026-07-09T01:08:21.204960,13.53275148,.0350601,98.5224,35.9232,39.8653,322.7685,0,U,24278,999,47612,.35079079E-4,.1E-7,0
TECHSAT 1B (GO-32),1998-043D,2026-07-08T21:50:18.087648,14.24432499,.00020151,99.0079,183.2175,124.8391,235.2977,0,U,25397,999,45442,.35510423E-4,.35E-6,0
ISS (ZARYA),1998-067A,2026-07-09T02:54:39.810240,15.48953098,.00066703,51.6303,191.5347,273.7232,86.2993,0,U,25544,999,57515,.10961171E-3,.5585E-4,0
PCSAT (NO-44),2001-043C,2026-07-08T11:05:25.916928,14.31963214,.00059773,67.0487,189.2445,266.0895,93.9524,0,U,26931,999,29349,.5564841E-4,.66E-6,0
SAUDISAT 1C (SO-50),2002-058C,2026-07-09T01:41:29.154048,14.83090961,.0074702,64.5518,61.2774,258.4036,100.8678,0,U,27607,999,26770,.80073889E-4,.528E-5,0
CUTE-1 (CO-55),2003-031E,2026-07-08T22:54:25.227360,14.24348882,.00106848,98.6739,198.2397,118.8005,241.4249,0,U,27844,999,19477,.10410026E-3,.197E-5,0
CUBESAT XI-IV (CO-57),2003-031J,2026-07-08T11:05:05.892000,14.23632050,.00102587,98.6772,197.4488,137.0463,223.1519,0,U,27848,999,19440,.99678022E-4,.184E-5,0
MOZHAETS 4 (RS22),2003-042A,2026-07-09T08:39:27.080640,14.73506027,.00107959,98.3481,15.3468,192.0332,287.3631,0,U,27939,999,21881,.40196347E-4,.207E-5,0
CUBESAT XI-V,2005-043F,2026-07-08T09:32:36.268800,14.72690312,.00150041,98.3007,345.4679,135.1728,225.0694,0,U,28895,999,10487,.17854786E-3,.1087E-4,0
CUTE-1.7+APD II (CO-65),2008-021C,2026-07-09T06:08:16.927872,15.09665034,.00074495,97.8286,172.1377,323.7200,36.3522,0,U,32785,999,98852,.18852408E-3,.2969E-4,0
SEEDS II (CO-66),2008-021J,2026-07-08T22:26:38.629248,15.33517693,.00023514,97.7528,188.8830,170.9352,189.1933,0,U,32791,999,99062,.39659306E-3,.12773E-3,0
YUBILEINY (RS30),2008-025A,2026-07-09T05:31:06.034944,12.43180670,.00185288,82.5059,341.7273,262.8522,97.0451,0,U,32953,999,82243,.52657325E-3,.83E-6,0
KKS-1 (KISEKI),2009-002H,2026-07-09T06:00:15.486336,14.83180307,.00069588,98.1179,113.0421,209.8459,150.2358,0,U,33499,999,93946,.12122123E-3,.934E-5,0
SWISSCUBE,2009-051B,2026-07-09T04:46:13.429056,14.62523766,.00075364,98.4016,98.4691,135.2732,224.9078,0,U,35932,999,89237,.14469747E-3,.685E-5,0
BEESAT-1,2009-051C,2026-07-08T16:07:48.536256,14.61755226,.00057337,98.3944,97.5236,147.2714,212.8843,0,U,35933,999,89232,.12965586E-3,.597E-5,0
ITUPSAT1,2009-051E,2026-07-08T13:04:29.830080,14.60472478,.00076108,98.4027,96.5634,162.4704,197.6760,0,U,35935,999,89185,.12544193E-3,.56E-5,0
XIWANG-1 (HOPE-1),2009-072B,2026-07-09T06:48:25.156800,13.16441366,.0007371,100.4034,143.7636,178.1675,181.9466,0,U,36122,999,79591,.59734827E-3,.184E-5,0
O/OREOS (USA 219),2010-062C,2026-07-09T05:29:01.232736,14.93837463,.00136365,71.9709,30.4075,16.8017,343.3602,0,U,37224,999,11993,.14125066E-3,.1439E-4,0
JUGNU,2011-058B,2026-07-09T00:44:46.468032,14.13782334,.00183769,19.9588,175.7154,318.1720,84.2013,0,U,37839,999,76212,.60431416E-4,.383E-5,0
SRMSAT,2011-058D,2026-07-09T06:25:34.908960,14.11580164,.00118767,19.9721,285.8249,86.5913,293.6936,0,U,37841,999,76094,.49931679E-4,.357E-5,0
STRAND-1,2013-009E,2026-07-08T22:00:42.585120,14.37176360,.00090498,98.3931,9.6176,158.4879,201.6690,0,U,39090,999,70018,.79795133E-4,.195E-5,0
ZACUBE-1 (TSHEPISOSAT),2013-066B,2026-07-09T03:16:03.961344,15.01311101,.00436571,97.8016,152.5825,174.6140,185.5562,0,U,39417,999,68402,.12533182E-3,.1581E-4,0
GOMX-1,2013-066Q,2026-07-09T05:56:23.070336,14.69532232,.01288191,97.6478,29.3178,7.3183,352.9865,0,U,39430,999,67315,.13684719E-3,.87E-5,0
